{
  "norad_id": 52564,
  "name": "STARLINK-3959",
  "history": [
    {
      "epoch": "2026-03-28T07:22:46.499232",
      "apogee_km": 540.7466003174331,
      "perigee_km": 538.7459484744768,
      "latitude_deg": -33.77035873688952,
      "longitude_deg": -174.08166752010584,
      "semi_major_axis_km": 6917.883274395955,
      "eccentricity": 0.0001446,
      "inclination_deg": 53.2177,
      "raan_deg": 50.5507,
      "arg_perigee_deg": 93.7091,
      "mean_anomaly_deg": 266.4066,
      "mean_motion_rev_day": 15.08839056
    },
    {
      "epoch": "2026-03-29T04:02:47.513472",
      "apogee_km": 540.7304606362277,
      "perigee_km": 538.7699314048759,
      "latitude_deg": -50.376286095654166,
      "longitude_deg": -91.41387391998433,
      "semi_major_axis_km": 6917.8871960205515,
      "eccentricity": 0.0001417,
      "inclination_deg": 53.2177,
      "raan_deg": 46.6863,
      "arg_perigee_deg": 91.1438,
      "mean_anomaly_deg": 268.9716,
      "mean_motion_rev_day": 15.08837773
    }
  ]
}